{"type": "FeatureCollection", "features": [ {"type": "Feature", "properties": {"norad_id": 31880, "name": "FENGYUN 1C DEB", "group": "fengyun-1c-debris", "lat": -47.85697791549233, "lon": -43.11207433668264, "alt_km": 909.8787800010377, "timestamp": "2025-12-11T10:53:16.172193+00:00", "meta": {"OBJECT_NAME": "FENGYUN 1C DEB", "OBJECT_ID": "1999-025CKF", "EPOCH": "2025-12-07T17:39:23.204736", "MEAN_MOTION": 13.89389039, "ECCENTRICITY": 0.01282018, "INCLINATION": 100.0287, "RA_OF_ASC_NODE": 144.1639, "ARG_OF_PERICENTER": 164.9392, "MEAN_ANOMALY": 195.5637, "EPHEMERIS_TYPE": 0, "CLASSIFICATION_TYPE": "U", "NORAD_CAT_ID": 31880, "ELEMENT_SET_NO": 999, "REV_AT_EPOCH": 62910, "BSTAR": 0.00081356926, "MEAN_MOTION_DOT": 1.01e-05, "MEAN_MOTION_DDOT": 0}, "tle": {"line1": "1 31880U 99025CKF 25341.73568524  .00001010  00000+0  81357-3 0  9998", "line2": "2 31880 100.0287 144.1639 0128201 164.9392 195.5637 13.89389039629103"}}, "geometry": {"type": "Point", "coordinates": [-43.11207433668264, -47.85697791549233]}}, {"type": "Feature", "properties": {"norad_id": 31882, "name": "FENGYUN 1C DEB", "group": "fengyun-1c-debris", "lat": 54.932666712045275, "lon": -104.93512775293544, "alt_km": 869.4015999554122, "timestamp": "2025-12-11T10:53:16.172206+00:00", "meta": {"OBJECT_NAME": "FENGYUN 1C DEB", "OBJECT_ID": "1999-025CKH", "EPOCH": "2025-12-04T12:04:11.131104", "MEAN_MOTION": 14.12940251, "ECCENTRICITY": 0.0035445, "INCLINATION": 98.9162, "RA_OF_ASC_NODE": 261.0675, "ARG_OF_PERICENTER": 248.9848, "MEAN_ANOMALY": 110.7531, "EPHEMERIS_TYPE": 0, "CLASSIFICATION_TYPE": "U", "NORAD_CAT_ID": 31882, "ELEMENT_SET_NO": 999, "REV_AT_EPOCH": 58520, "BSTAR": 0.0011941, "MEAN_MOTION_DOT": 2.193e-05, "MEAN_MOTION_DDOT": 0}, "tle": {"line1": "1 31882U 99025CKH 25338.50290661  .00002193  00000+0  11941-2 0  9999", "line2": "2 31882  98.9162 261.0675 0035445 248.9848 110.7531 14.12940251585207"}}, "geometry": {"type": "Point", "coordinates": [-104.93512775293544, 54.932666712045275]}}, {"type": "Feature", "properties": {"norad_id": 31883, "name": "FENGYUN 1C DEB", "group": "fengyun-1c-debris", "lat": -44.10954282563202, "lon": 73.08403155161858, "alt_km": 752.4367786497223, "timestamp": "2025-12-11T10:53:16.172216+00:00", "meta": {"OBJECT_NAME": "FENGYUN 1C DEB", "OBJECT_ID": "1999-025CKJ", "EPOCH": "2025-12-11T00:03:34.221024", "MEAN_MOTION": 14.67707754, "ECCENTRICITY": 0.0125194, "INCLINATION": 99.0277, "RA_OF_ASC_NODE": 261.4527, "ARG_OF_PERICENTER": 74.4685, "MEAN_ANOMALY": 287.0298, "EPHEMERIS_TYPE": 0, "CLASSIFICATION_TYPE": "U", "NORAD_CAT_ID": 31883, "ELEMENT_SET_NO": 999, "REV_AT_EPOCH": 97953, "BSTAR": 0.00094547, "MEAN_MOTION_DOT": 5.999e-05, "MEAN_MOTION_DDOT": 0}, "tle": {"line1": "1 31883U 99025CKJ 25345.00247941  .00005999  00000+0  94547-3 0  9997", "line2": "2 31883  99.0277 261.4527 0125194  74.4685 287.0298 14.67707754979539"}}, "geometry": {"type": "Point", "coordinates": [73.08403155161858, -44.10954282563202]}}, {"type": "Feature", "properties": {"norad_id": 31887, "name": "FENGYUN 1C DEB", "group": "fengyun-1c-debris", "lat": 49.814552975812184, "lon": 25.390701211629267, "alt_km": 683.1117320722597, "timestamp": "2025-12-11T10:53:16.172226+00:00", "meta": {"OBJECT_NAME": "FENGYUN 1C DEB", "OBJECT_ID": "1999-025CKN", "EPOCH": "2025-12-10T21:28:42.509280", "MEAN_MOTION": 14.57764662, "ECCENTRICITY": 0.0024132, "INCLINATION": 99.534, "RA_OF_ASC_NODE": 36.2286, "ARG_OF_PERICENTER": 10.3221, "MEAN_ANOMALY": 349.8464, "EPHEMERIS_TYPE": 0, "CLASSIFICATION_TYPE": "U", "NORAD_CAT_ID": 31887, "ELEMENT_SET_NO": 999, "REV_AT_EPOCH": 96581, "BSTAR": 0.0013744, "MEAN_MOTION_DOT": 6.253e-05, "MEAN_MOTION_DDOT": 0}, "tle": {"line1": "1 31887U 99025CKN 25344.89493645  .00006253  00000+0  13744-2 0  9994", "line2": "2 31887  99.5340  36.2286 0024132  10.3221 349.8464 14.57764662965812"}}, "geometry": {"type": "Point", "coordinates": [25.390701211629267, 49.814552975812184]}}, {"type": "Feature", "properties": {"norad_id": 31888, "name": "FENGYUN 1C DEB", "group": "fengyun-1c-debris", "lat": -12.951241262438577, "lon": 89.65824347237154, "alt_km": 772.1999466883526, "timestamp": "2025-12-11T10:53:16.172237+00:00", "meta": {"OBJECT_NAME": "FENGYUN 1C DEB", "OBJECT_ID": "1999-025CKP", "EPOCH": "2025-12-09T12:46:19.286688", "MEAN_MOTION": 14.33869368, "ECCENTRICITY": 0.0017415, "INCLINATION": 99.155, "RA_OF_ASC_NODE": 269.7513, "ARG_OF_PERICENTER": 227.0258, "MEAN_ANOMALY": 132.9465, "EPHEMERIS_TYPE": 0, "CLASSIFICATION_TYPE": "U", "NORAD_CAT_ID": 31888, "ELEMENT_SET_NO": 999, "REV_AT_EPOCH": 95591, "BSTAR": 0.0028784, "MEAN_MOTION_DOT": 7.988e-05, "MEAN_MOTION_DDOT": 0}, "tle": {"line1": "1 31888U 99025CKP 25343.53216767  .00007988  00000+0  28784-2 0  9999", "line2": "2 31888  99.1550 269.7513 0017415 227.0258 132.9465 14.33869368955916"}}, "geometry": {"type": "Point", "coordinates": [89.65824347237154, -12.951241262438577]}}, {"type": "Feature", "properties": {"norad_id": 31890, "name": "FENGYUN 1C DEB", "group": "fengyun-1c-debris", "lat": -14.224425116448849, "lon": -0.7573854581826577, "alt_km": 871.9497762901856, "timestamp": "2025-12-11T10:53:16.172247+00:00", "meta": {"OBJECT_NAME": "FENGYUN 1C DEB", "OBJECT_ID": "1999-025CKR", "EPOCH": "2025-12-10T07:42:33.875424", "MEAN_MOTION": 14.10131254, "ECCENTRICITY": 0.0071571, "INCLINATION": 98.7184, "RA_OF_ASC_NODE": 355.9158, "ARG_OF_PERICENTER": 249.1097, "MEAN_ANOMALY": 110.2401, "EPHEMERIS_TYPE": 0, "CLASSIFICATION_TYPE": "U", "NORAD_CAT_ID": 31890, "ELEMENT_SET_NO": 999, "REV_AT_EPOCH": 64118, "BSTAR": 0.00021407, "MEAN_MOTION_DOT": 3.44e-06, "MEAN_MOTION_DDOT": 0}, "tle": {"line1": "1 31890U 99025CKR 25344.32122541  .00000344  00000+0  21407-3 0  9991", "line2": "2 31890  98.7184 355.9158 0071571 249.1097 110.2401 14.10131254641180"}}, "geometry": {"type": "Point", "coordinates": [-0.7573854581826577, -14.224425116448849]}}, {"type": "Feature", "properties": {"norad_id": 31891, "name": "FENGYUN 1C DEB", "group": "fengyun-1c-debris", "lat": 79.80297798862121, "lon": -112.32833688940924, "alt_km": 1009.8462751256175, "timestamp": "2025-12-11T10:53:16.172257+00:00", "meta": {"OBJECT_NAME": "FENGYUN 1C DEB", "OBJECT_ID": "1999-025CKS", "EPOCH": "2025-12-06T00:20:55.229568", "MEAN_MOTION": 13.66193809, "ECCENTRICITY": 0.0224822, "INCLINATION": 99.4024, "RA_OF_ASC_NODE": 355.2939, "ARG_OF_PERICENTER": 200.6432, "MEAN_ANOMALY": 158.5519, "EPHEMERIS_TYPE": 0, "CLASSIFICATION_TYPE": "U", "NORAD_CAT_ID": 31891, "ELEMENT_SET_NO": 999, "REV_AT_EPOCH": 92318, "BSTAR": 0.00081038713, "MEAN_MOTION_DOT": 7.52e-06, "MEAN_MOTION_DDOT": 0}, "tle": {"line1": "1 31891U 99025CKS 25340.01452812  .00000752  00000+0  81039-3 0  9991", "line2": "2 31891  99.4024 355.2939 0224822 200.6432 158.5519 13.66193809923188"}}, "geometry": {"type": "Point", "coordinates": [-112.32833688940924, 79.80297798862121]}}, {"type": "Feature", "properties": {"norad_id": 31892, "name": "FENGYUN 1C DEB", "group": "fengyun-1c-debris", "lat": 53.35752510250633, "lon": 142.39539281870077, "alt_km": 826.559679787385, "timestamp": "2025-12-11T10:53:16.172269+00:00", "meta": {"OBJECT_NAME": "FENGYUN 1C DEB", "OBJECT_ID": "1999-025CKT", "EPOCH": "2025-12-06T17:19:53.766912", "MEAN_MOTION": 14.41156255, "ECCENTRICITY": 0.01986119, "INCLINATION": 99.2881, "RA_OF_ASC_NODE": 149.9643, "ARG_OF_PERICENTER": 304.4066, "MEAN_ANOMALY": 53.8482, "EPHEMERIS_TYPE": 0, "CLASSIFICATION_TYPE": "U", "NORAD_CAT_ID": 31892, "ELEMENT_SET_NO": 999, "REV_AT_EPOCH": 64819, "BSTAR": 0.001005312, "MEAN_MOTION_DOT": 4.04e-05, "MEAN_MOTION_DDOT": 0}, "tle": {"line1": "1 31892U 99025CKT 25340.72215008  .00004040  00000+0  10053-2 0  9995", "line2": "2 31892  99.2881 149.9643 0198611 304.4066  53.8482 14.41156255648199"}}, "geometry": {"type": "Point", "coordinates": [142.39539281870077, 53.35752510250633]}}, {"type": "Feature", "properties": {"norad_id": 31893, "name": "FENGYUN 1C DEB", "group": "fengyun-1c-debris", "lat": -42.14075828454065, "lon": -48.08752775711651, "alt_km": 567.2907154641543, "timestamp": "2025-12-11T10:53:16.172281+00:00", "meta": {"OBJECT_NAME": "FENGYUN 1C DEB", "OBJECT_ID": "1999-025CKU", "EPOCH": "2025-12-10T03:58:03.016416", "MEAN_MOTION": 14.63735073, "ECCENTRICITY": 0.0175148, "INCLINATION": 99.0702, "RA_OF_ASC_NODE": 302.1839, "ARG_OF_PERICENTER": 334.6448, "MEAN_ANOMALY": 38.1514, "EPHEMERIS_TYPE": 0, "CLASSIFICATION_TYPE": "U", "NORAD_CAT_ID": 31893, "ELEMENT_SET_NO": 999, "REV_AT_EPOCH": 98367, "BSTAR": 0.00066013883, "MEAN_MOTION_DOT": 4.232e-05, "MEAN_MOTION_DDOT": 0}, "tle": {"line1": "1 31893U 99025CKU 25344.16531269  .00004232  00000+0  66014-3 0  9990", "line2": "2 31893  99.0702 302.1839 0175148 334.6448  38.1514 14.63735073983671"}}, "geometry": {"type": "Point", "coordinates": [-48.08752775711651, -42.14075828454065]}}, {"type": "Feature", "properties": {"norad_id": 31895, "name": "FENGYUN 1C DEB", "group": "fengyun-1c-debris", "lat": -57.16013274929221, "lon": -179.96680281677988, "alt_km": 821.0390436801463, "timestamp": "2025-12-11T10:53:16.172293+00:00", "meta": {"OBJECT_NAME": "FENGYUN 1C DEB", "OBJECT_ID": "1999-025CKW", "EPOCH": "2025-12-04T08:23:00.168864", "MEAN_MOTION": 13.75460226, "ECCENTRICITY": 0.02263483, "INCLINATION": 99.1028, "RA_OF_ASC_NODE": 7.6273, "ARG_OF_PERICENTER": 251.6022, "MEAN_ANOMALY": 106.0398, "EPHEMERIS_TYPE": 0, "CLASSIFICATION_TYPE": "U", "NORAD_CAT_ID": 31895, "ELEMENT_SET_NO": 999, "REV_AT_EPOCH": 61781, "BSTAR": 0.0039968239, "MEAN_MOTION_DOT": 4.593e-05, "MEAN_MOTION_DDOT": 0}, "tle": {"line1": "1 31895U 99025CKW 25338.34930751  .00004593  00000+0  39968-2 0  9991", "line2": "2 31895  99.1028   7.6273 0226348 251.6022 106.0398 13.75460226617811"}}, "geometry": {"type": "Point", "coordinates": [-179.96680281677988, -57.16013274929221]}}]}